NORAD_CAT_ID,OBJECT_NAME,OBJECT_TYPE,EPOCH,MEAN_MOTION,ECCENTRICITY,INCLINATION,RA_OF_ASC_NODE,ARG_OF_PERICENTER,MEAN_ANOMALY,BSTAR,MEAN_MOTION_DOT,MEAN_MOTION_DDOT,TLE_LINE0,TLE_LINE1,TLE_LINE2,SEMIMAJOR_AXIS,PERIOD,APOGEE,PERIGEE,DECAYED
53554.0,STARLINK-4506,PAYLOAD,2024-05-19 10:31:53,15.08817671,0.0001318,53.2182,143.6255,113.3756,246.7375,-0.00011537,-2.122e-05,0.0,0 STARLINK-4506,1 53554U 22101AD  24140.43881183 -.00002122  00000-0 -11537-3 0  9994,2 53554  53.2182 143.6255 0001318 113.3756 246.7375 15.08817671 96788,6917.949,95.439,540.725,538.902,0.0
53554.0,STARLINK-4506,PAYLOAD,2024-05-20 04:01:07,15.08826,0.0001039,53.2163,140.352,85.4307,274.6804,4.0318e-05,3.54e-06,0.0,0 STARLINK-4506,1 53554U 22101AD  24141.16745104  .00000354  00000-0  40318-4 0  9990,2 53554  53.2163 140.3520 0001039  85.4307 274.6804 15.08826000 96892,6917.923,95.438,540.507,539.069,0.0
53554.0,STARLINK-4506,PAYLOAD,2024-05-20 08:47:17,15.0883005,0.0001096,53.2167,139.4601,88.2908,271.8209,8.9838e-05,1.142e-05,0.0,0 STARLINK-4506,1 53554U 22101AD  24141.36617022  .00001142  00000-0  89838-4 0  9995,2 53554  53.2167 139.4601 0001096  88.2908 271.8209 15.08830050 96928,6917.911,95.438,540.534,539.018,0.0
53554.0,STARLINK-4506,PAYLOAD,2024-05-21 03:51:54,15.08835234,0.0001038,53.2152,135.892,84.4895,275.6216,0.00036222,5.481e-05,0.0,0 STARLINK-4506,1 53554U 22101AD  24142.16105245  .00005481  00000-0  36222-3 0  9991,2 53554  53.2152 135.8920 0001038  84.4895 275.6216 15.08835234 97048,6917.895,95.438,540.478,539.042,0.0
53554.0,STARLINK-4506,PAYLOAD,2024-05-21 07:02:41,15.08840987,0.0001065,53.2153,135.2973,82.9066,277.2048,0.00042626,6.503e-05,0.0,0 STARLINK-4506,1 53554U 22101AD  24142.29353146  .00006503  00000-0  42626-3 0  9991,2 53554  53.2153 135.2973 0001065  82.9066 277.2048 15.08840987 97068,6917.877,95.437,540.479,539.006,0.0
53554.0,STARLINK-4506,PAYLOAD,2024-05-21 22:56:31,15.08852496,0.0001179,53.2156,132.3216,79.7072,280.4053,0.00033089,4.984e-05,0.0,0 STARLINK-4506,1 53554U 22101AD  24142.95592551  .00004984  00000-0  33089-3 0  9993,2 53554  53.2156 132.3216 0001179  79.7072 280.4053 15.08852496 97167,6917.842,95.437,540.523,538.892,0.0
53554.0,STARLINK-4506,PAYLOAD,2024-05-22 03:42:41,15.08855751,0.0001177,53.2158,131.4307,82.9908,277.1218,0.00032956,4.963e-05,0.0,0 STARLINK-4506,1 53554U 22101AD  24143.15464273  .00004963  00000-0  32956-3 0  9994,2 53554  53.2158 131.4307 0001177  82.9908 277.1218 15.08855751 97198,6917.832,95.437,540.511,538.883,0.0
53554.0,STARLINK-4506,PAYLOAD,2024-05-22 06:53:27,15.08858551,0.0001084,53.2154,130.8358,87.4386,272.673,0.00031886,4.793e-05,0.0,0 STARLINK-4506,1 53554U 22101AD  24143.28712014  .00004793  00000-0  31886-3 0  9999,2 53554  53.2154 130.8358 0001084  87.4386 272.6730 15.08858551 97213,6917.824,95.436,540.439,538.939,0.0
53554.0,STARLINK-4506,PAYLOAD,2024-05-23 05:08:50,15.08849709,0.0001181,53.2159,126.673,83.3228,276.7898,2.0224e-05,3.4e-07,0.0,0 STARLINK-4506,1 53554U 22101AD  24144.21447667  .00000034  00000-0  20224-4 0  9991,2 53554  53.2159 126.6730 0001181  83.3228 276.7898 15.08849709 97353,6917.851,95.437,540.533,538.899,0.0
53554.0,STARLINK-4506,PAYLOAD,2024-05-24 04:59:37,15.08848939,0.0001278,53.2159,122.2128,78.2815,281.8321,6.3654e-05,7.26e-06,0.0,0 STARLINK-4506,1 53554U 22101AD  24145.20807346  .00000726  00000-0  63654-4 0  9997,2 53554  53.2159 122.2128 0001278  78.2815 281.8321 15.08848939 97507,6917.853,95.437,540.602,538.834,0.0
53554.0,STARLINK-4506,PAYLOAD,2024-05-24 22:28:52,15.08841929,0.0001364,53.2161,118.9418,85.2931,274.8217,6.5981e-05,7.62e-06,0.0,0 STARLINK-4506,1 53554U 22101AD  24145.93671495  .00000762  00000-0  65981-4 0  9996,2 53554  53.2161 118.9418 0001364  85.2931 274.8217 15.08841929 97617,6917.874,95.437,540.683,538.796,0.0
53554.0,STARLINK-4506,PAYLOAD,2024-05-25 03:15:01,15.08837266,0.0001311,53.2172,118.0475,99.7724,260.3416,-8.7886e-06,-4.28e-06,0.0,0 STARLINK-4506,1 53554U 22101AD  24146.13543831 -.00000428  00000-0 -87886-5 0  9991,2 53554  53.2172 118.0475 0001311  99.7724 260.3416 15.08837266 97648,6917.889,95.438,540.661,538.847,0.0
53554.0,STARLINK-4506,PAYLOAD,2024-05-25 08:01:11,15.08835043,0.0001339,53.2177,117.1568,102.1988,257.9154,-2.207e-05,-6.39e-06,0.0,0 STARLINK-4506,1 53554U 22101AD  24146.33416012 -.00000639  00000-0 -22070-4 0  9990,2 53554  53.2177 117.1568 0001339 102.1988 257.9154 15.08835043 97672,6917.896,95.438,540.687,538.834,0.0
53554.0,STARLINK-4506,PAYLOAD,2024-05-26 04:41:11,15.08839614,0.0001231,53.2175,113.2917,100.2375,259.8756,4.3464e-06,-2.19e-06,0.0,0 STARLINK-4506,1 53554U 22101AD  24147.19527774 -.00000219  00000-0  43464-5 0  9997,2 53554  53.2175 113.2917 0001231 100.2375 259.8756 15.08839614 97807,6917.882,95.438,540.598,538.895,0.0
53554.0,STARLINK-4506,PAYLOAD,2024-05-26 07:51:58,15.08839618,0.0001274,53.2176,112.6971,105.194,254.9193,4.2308e-06,-2.21e-06,0.0,0 STARLINK-4506,1 53554U 22101AD  24147.32775782 -.00000221  00000-0  42308-5 0  9995,2 53554  53.2176 112.6971 0001274 105.1940 254.9193 15.08839618 97827,6917.882,95.438,540.628,538.865,0.0
53554.0,STARLINK-4506,PAYLOAD,2024-05-26 22:10:26,15.08830911,0.0001363,53.2183,110.0222,84.6225,275.4922,8.8992e-05,1.128e-05,0.0,0 STARLINK-4506,1 53554U 22101AD  24147.92392274  .00001128  00000-0  88992-4 0  9996,2 53554  53.2183 110.0222 0001363  84.6225 275.4922 15.08830911 97917,6917.908,95.438,540.716,538.83,0.0
53554.0,STARLINK-4506,PAYLOAD,2024-05-27 04:31:59,15.08832308,0.0001228,53.2173,108.8324,84.4938,275.6194,-4.2971e-06,-3.56e-06,0.0,0 STARLINK-4506,1 53554U 22101AD  24148.18888640 -.00000356  00000-0 -42971-5 0  9994,2 53554  53.2173 108.8324 0001228  84.4938 275.6194 15.08832308 97952,6917.904,95.438,540.618,538.919,0.0
53554.0,STARLINK-4506,PAYLOAD,2024-05-27 14:04:18,15.08830747,0.0001502,53.2185,107.0594,160.0367,200.0684,9.2089e-05,1.178e-05,0.0,0 STARLINK-4506,1 53554U 22101AD  24148.58632380  .00001178  00000-0  92089-4 0  9991,2 53554  53.2185 107.0594 0001502 160.0367 200.0684 15.08830747 98016,6917.909,95.438,540.813,538.735,0.0
53554.0,STARLINK-4506,PAYLOAD,2024-05-28 05:58:09,15.08838151,0.0001249,53.2175,104.0732,107.5478,252.565,6.7312e-05,7.84e-06,0.0,0 STARLINK-4506,1 53554U 22101AD  24149.24872397  .00000784  00000-0  67312-4 0  9992,2 53554  53.2175 104.0732 0001249 107.5478 252.5650 15.08838151 98116,6917.886,95.438,540.615,538.887,0.0
53554.0,STARLINK-4506,PAYLOAD,2024-05-29 05:48:57,15.08836177,0.000126,53.2178,99.6126,103.3974,256.7159,8.5298e-05,1.07e-05,0.0,0 STARLINK-4506,1 53554U 22101AD  24150.24232690  .00001070  00000-0  85298-4 0  9992,2 53554  53.2178  99.6126 0001260 103.3974 256.7159 15.08836177 98265,6917.892,95.438,540.629,538.885,0.0
53554.0,STARLINK-4506,PAYLOAD,2024-05-30 04:04:20,15.08844139,0.0001305,53.2184,95.4503,95.844,264.2701,6.7856e-05,7.92e-06,0.0,0 STARLINK-4506,1 53554U 22101AD  24151.16968433  .00000792  00000-0  67856-4 0  9995,2 53554  53.2184  95.4503 0001305  95.8440 264.2701 15.08844139 98408,6917.868,95.437,540.636,538.83,0.0
53554.0,STARLINK-4506,PAYLOAD,2024-05-30 05:39:43,15.08844883,0.0001312,53.2185,95.1524,96.2285,263.8856,8.1056e-05,1.003e-05,0.0,0 STARLINK-4506,1 53554U 22101AD  24151.23592379  .00001003  00000-0  81056-4 0  9999,2 53554  53.2185  95.1524 0001312  96.2285 263.8856 15.08844883 98412,6917.865,95.437,540.638,538.823,0.0
53554.0,STARLINK-4506,PAYLOAD,2024-05-31 05:30:30,15.08844165,0.0001342,53.2186,90.6922,93.565,266.5496,7.083e-05,8.4e-06,0.0,0 STARLINK-4506,1 53554U 22101AD  24152.22952274  .00000840  00000-0  70830-4 0  9999,2 53554  53.2186  90.6922 0001342  93.5650 266.5496 15.08844165 98563,6917.868,95.437,540.661,538.804,0.0
53554.0,STARLINK-4506,PAYLOAD,2024-05-31 22:59:45,15.08840242,0.0001644,53.2207,87.423,94.0096,266.1084,4.4942e-05,4.27e-06,0.0,0 STARLINK-4506,1 53554U 22101AD  24152.95816443  .00000427  00000-0  44942-4 0  9992,2 53554  53.2207  87.4230 0001644  94.0096 266.1084 15.08840242 98671,6917.88,95.438,540.882,538.607,0.0
53554.0,STARLINK-4506,PAYLOAD,2024-06-01 02:10:31,15.08841498,0.0001462,53.2198,86.8285,96.2453,263.8706,-1.1274e-05,-4.67e-06,0.0,0 STARLINK-4506,1 53554U 22101AD  24153.09064523 -.00000467  00000-0 -11274-4 0  9990,2 53554  53.2198  86.8285 0001462  96.2453 263.8706 15.08841498 98693,6917.876,95.437,540.752,538.729,0.0
53554.0,STARLINK-4506,PAYLOAD,2024-06-02 05:12:05,15.08839335,0.0001362,53.2178,81.7748,86.8574,273.2574,9.0306e-06,-1.44e-06,0.0,0 STARLINK-4506,1 53554U 22101AD  24154.21672574 -.00000144  00000-0  90306-5 0  9991,2 53554  53.2178  81.7748 0001362  86.8574 273.2574 15.08839335 98861,6917.882,95.438,540.69,538.805,0.0
53554.0,STARLINK-4506,PAYLOAD,2024-06-03 11:24:24,15.08847468,0.0001345,53.2199,76.1235,89.8939,270.2207,0.00010116,1.323e-05,0.0,0 STARLINK-4506,1 53554U 22101AD  24155.47527993  .00001323  00000-0  10116-3 0  9992,2 53554  53.2199  76.1235 0001345  89.8939 270.2207 15.08847468 99050,6917.858,95.437,540.653,538.792,0.0
53554.0,STARLINK-4506,PAYLOAD,2024-06-03 19:21:20,15.08844431,0.00027,53.219,74.6364,78.829,281.3005,0.00013464,1.855e-05,0.0,0 STARLINK-4506,1 53554U 22101AD  24155.80648561  .00001855  00000-0  13464-3 0  9993,2 53554  53.2190  74.6364 0002700  78.8290 281.3005 15.08844431 99103,6917.867,95.437,541.6,537.864,0.0
53554.0,STARLINK-4506,PAYLOAD,2024-06-04 03:18:17,15.08830167,0.0001576,53.2192,73.1529,88.5058,271.6115,2.8091e-05,1.59e-06,0.0,0 STARLINK-4506,1 53554U 22101AD  24156.13769723  .00000159  00000-0  28091-4 0  9993,2 53554  53.2192  73.1529 0001576  88.5058 271.6115 15.08830167 99152,6917.91,95.438,540.866,538.685,0.0
53554.0,STARLINK-4506,PAYLOAD,2024-06-04 11:15:11,15.08848109,0.0001101,53.2188,71.662,71.404,288.7071,0.00014716,2.056e-05,0.0,0 STARLINK-4506,1 53554U 22101AD  24156.46888204  .00002056  00000-0  14716-3 0  9991,2 53554  53.2188  71.6620 0001101  71.4040 288.7071 15.08848109 99209,6917.856,95.437,540.482,538.959,0.0
